{"type": "FeatureCollection", "features": [ {"type": "Feature", "properties": {"norad_id": 52912, "name": "GAOFEN-12 03", "group": "resource", "lat": 53.23024333702617, "lon": 74.9535042159074, "alt_km": 625.19398472176, "timestamp": "2025-12-23T05:02:11.681428+00:00", "meta": {"OBJECT_NAME": "GAOFEN-12 03", "OBJECT_ID": "2022-069A", "EPOCH": "2025-12-22T23:36:01.160928", "MEAN_MOTION": 14.79631908, "ECCENTRICITY": 0.00018928, "INCLINATION": 97.8483, "RA_OF_ASC_NODE": 244.0954, "ARG_OF_PERICENTER": 50.0877, "MEAN_ANOMALY": 310.0501, "EPHEMERIS_TYPE": 0, "CLASSIFICATION_TYPE": "U", "NORAD_CAT_ID": 52912, "ELEMENT_SET_NO": 999, "REV_AT_EPOCH": 18855, "BSTAR": 0.0001885152, "MEAN_MOTION_DOT": 1.363e-05, "MEAN_MOTION_DDOT": 0}, "tle": {"line1": "1 52912U 22069A   25356.98334677  .00001363  00000+0  18852-3 0  9995", "line2": "2 52912  97.8483 244.0954 0001892  50.0877 310.0501 14.79631908188550"}}, "geometry": {"type": "Point", "coordinates": [74.9535042159074, 53.23024333702617]}}, {"type": "Feature", "properties": {"norad_id": 54754, "name": "SWOT", "group": "resource", "lat": -4.6620371025337155, "lon": -88.17034972730603, "alt_km": 896.539268388181, "timestamp": "2025-12-23T05:02:11.681438+00:00", "meta": {"OBJECT_NAME": "SWOT", "OBJECT_ID": "2022-173A", "EPOCH": "2025-12-22T22:11:58.907040", "MEAN_MOTION": 14.00168335, "ECCENTRICITY": 3.787e-05, "INCLINATION": 77.6109, "RA_OF_ASC_NODE": 273.2411, "ARG_OF_PERICENTER": 84.341, "MEAN_ANOMALY": 275.7784, "EPHEMERIS_TYPE": 0, "CLASSIFICATION_TYPE": "U", "NORAD_CAT_ID": 54754, "ELEMENT_SET_NO": 999, "REV_AT_EPOCH": 15448, "BSTAR": 3.1194682e-05, "MEAN_MOTION_DOT": 4.3e-07, "MEAN_MOTION_DDOT": 0}, "tle": {"line1": "1 54754U 22173A   25356.92498735  .00000043  00000+0  31195-4 0  9997", "line2": "2 54754  77.6109 273.2411 0000378  84.3410 275.7784 14.00168335154488"}}, "geometry": {"type": "Point", "coordinates": [-88.17034972730603, -4.6620371025337155]}}, {"type": "Feature", "properties": {"norad_id": 57654, "name": "GAOFEN-12 04", "group": "resource", "lat": -59.964748009155095, "lon": -73.27157994598798, "alt_km": 637.9611555865877, "timestamp": "2025-12-23T05:02:11.681448+00:00", "meta": {"OBJECT_NAME": "GAOFEN-12 04", "OBJECT_ID": "2023-123A", "EPOCH": "2025-12-22T22:49:11.703360", "MEAN_MOTION": 14.79728211, "ECCENTRICITY": 0.00012069, "INCLINATION": 97.9131, "RA_OF_ASC_NODE": 272.5534, "ARG_OF_PERICENTER": 78.3605, "MEAN_ANOMALY": 281.7743, "EPHEMERIS_TYPE": 0, "CLASSIFICATION_TYPE": "U", "NORAD_CAT_ID": 57654, "ELEMENT_SET_NO": 999, "REV_AT_EPOCH": 12656, "BSTAR": 0.00018059328, "MEAN_MOTION_DOT": 1.306e-05, "MEAN_MOTION_DDOT": 0}, "tle": {"line1": "1 57654U 23123A   25356.95082990  .00001306  00000+0  18059-3 0  9996", "line2": "2 57654  97.9131 272.5534 0001206  78.3605 281.7743 14.79728211126569"}}, "geometry": {"type": "Point", "coordinates": [-73.27157994598798, -59.964748009155095]}}, {"type": "Feature", "properties": {"norad_id": 59065, "name": "PARS 1", "group": "resource", "lat": 53.79545049244704, "lon": 158.68520569841462, "alt_km": 436.85758970728784, "timestamp": "2025-12-23T05:02:11.681458+00:00", "meta": {"OBJECT_NAME": "PARS 1", "OBJECT_ID": "2024-039Q", "EPOCH": "2025-12-22T23:49:13.078272", "MEAN_MOTION": 15.41197007, "ECCENTRICITY": 0.00117781, "INCLINATION": 97.465, "RA_OF_ASC_NODE": 328.1441, "ARG_OF_PERICENTER": 41.064, "MEAN_ANOMALY": 319.1491, "EPHEMERIS_TYPE": 0, "CLASSIFICATION_TYPE": "U", "NORAD_CAT_ID": 59065, "ELEMENT_SET_NO": 999, "REV_AT_EPOCH": 10146, "BSTAR": 0.00030673762, "MEAN_MOTION_DOT": 0.00012679, "MEAN_MOTION_DDOT": 0}, "tle": {"line1": "1 59065U 24039Q   25356.99251248  .00012679  00000+0  30674-3 0  9991", "line2": "2 59065  97.4650 328.1441 0011778  41.0640 319.1491 15.41197007101465"}}, "geometry": {"type": "Point", "coordinates": [158.68520569841462, 53.79545049244704]}}, {"type": "Feature", "properties": {"norad_id": 59371, "name": "RESURS-P 4", "group": "resource", "lat": -68.97193367137847, "lon": -37.317372797462404, "alt_km": 477.137030978467, "timestamp": "2025-12-23T05:02:11.681468+00:00", "meta": {"OBJECT_NAME": "RESURS-P 4", "OBJECT_ID": "2024-061A", "EPOCH": "2025-12-22T23:04:22.507968", "MEAN_MOTION": 15.32162472, "ECCENTRICITY": 9.102e-05, "INCLINATION": 97.2563, "RA_OF_ASC_NODE": 303.0824, "ARG_OF_PERICENTER": 71.2752, "MEAN_ANOMALY": 288.8588, "EPHEMERIS_TYPE": 0, "CLASSIFICATION_TYPE": "U", "NORAD_CAT_ID": 59371, "ELEMENT_SET_NO": 999, "REV_AT_EPOCH": 9677, "BSTAR": 0.00014119426, "MEAN_MOTION_DOT": 4.308e-05, "MEAN_MOTION_DDOT": 0}, "tle": {"line1": "1 59371U 24061A   25356.96137162  .00004308  00000+0  14119-3 0  9997", "line2": "2 59371  97.2563 303.0824 0000910  71.2752 288.8588 15.32162472 96772"}}, "geometry": {"type": "Point", "coordinates": [-37.317372797462404, -68.97193367137847]}}, {"type": "Feature", "properties": {"norad_id": 59625, "name": "LEGION 1", "group": "resource", "lat": -70.43396039338295, "lon": 93.57848204527019, "alt_km": 521.1349641679599, "timestamp": "2025-12-23T05:02:11.681478+00:00", "meta": {"OBJECT_NAME": "LEGION 1", "OBJECT_ID": "2024-081A", "EPOCH": "2025-12-22T21:26:07.519776", "MEAN_MOTION": 15.16573479, "ECCENTRICITY": 0.00036279, "INCLINATION": 97.5201, "RA_OF_ASC_NODE": 71.4452, "ARG_OF_PERICENTER": 270.1017, "MEAN_ANOMALY": 89.98, "EPHEMERIS_TYPE": 0, "CLASSIFICATION_TYPE": "U", "NORAD_CAT_ID": 59625, "ELEMENT_SET_NO": 999, "REV_AT_EPOCH": 9081, "BSTAR": 0.00029998685, "MEAN_MOTION_DOT": 5.79e-05, "MEAN_MOTION_DDOT": 0}, "tle": {"line1": "1 59625U 24081A   25356.89314259  .00005790  00000+0  29999-3 0  9995", "line2": "2 59625  97.5201  71.4452 0003627 270.1017  89.9800 15.16573479 90812"}}, "geometry": {"type": "Point", "coordinates": [93.57848204527019, -70.43396039338295]}}, {"type": "Feature", "properties": {"norad_id": 59626, "name": "LEGION 2", "group": "resource", "lat": 70.17931795637881, "lon": -86.65177793148263, "alt_km": 512.3811069655894, "timestamp": "2025-12-23T05:02:11.681488+00:00", "meta": {"OBJECT_NAME": "LEGION 2", "OBJECT_ID": "2024-081B", "EPOCH": "2025-12-22T20:38:33.108288", "MEAN_MOTION": 15.16586549, "ECCENTRICITY": 0.00056773, "INCLINATION": 97.5203, "RA_OF_ASC_NODE": 71.5003, "ARG_OF_PERICENTER": 249.6967, "MEAN_ANOMALY": 110.3656, "EPHEMERIS_TYPE": 0, "CLASSIFICATION_TYPE": "U", "NORAD_CAT_ID": 59626, "ELEMENT_SET_NO": 999, "REV_AT_EPOCH": 9081, "BSTAR": 0.00026026109, "MEAN_MOTION_DOT": 5.017e-05, "MEAN_MOTION_DDOT": 0}, "tle": {"line1": "1 59626U 24081B   25356.86010542  .00005017  00000+0  26026-3 0  9991", "line2": "2 59626  97.5203  71.5003 0005677 249.6967 110.3656 15.16586549 90810"}}, "geometry": {"type": "Point", "coordinates": [-86.65177793148263, 70.17931795637881]}}, {"type": "Feature", "properties": {"norad_id": 60182, "name": "ALOS-4 (DAICHI-4)", "group": "resource", "lat": 9.108036739449432, "lon": -86.81341617689014, "alt_km": 632.4955614232049, "timestamp": "2025-12-23T05:02:11.681498+00:00", "meta": {"OBJECT_NAME": "ALOS-4 (DAICHI-4)", "OBJECT_ID": "2024-123A", "EPOCH": "2025-12-20T19:27:23.065632", "MEAN_MOTION": 14.79476706, "ECCENTRICITY": 0.00013885, "INCLINATION": 97.9224, "RA_OF_ASC_NODE": 89.5428, "ARG_OF_PERICENTER": 101.3368, "MEAN_ANOMALY": 258.8, "EPHEMERIS_TYPE": 0, "CLASSIFICATION_TYPE": "U", "NORAD_CAT_ID": 60182, "ELEMENT_SET_NO": 999, "REV_AT_EPOCH": 7950, "BSTAR": 0.00018386978, "MEAN_MOTION_DOT": 1.322e-05, "MEAN_MOTION_DDOT": 0}, "tle": {"line1": "1 60182U 24123A   25354.81068363  .00001322  00000+0  18387-3 0  9990", "line2": "2 60182  97.9224  89.5428 0001388 101.3368 258.8000 14.79476706 79505"}}, "geometry": {"type": "Point", "coordinates": [-86.81341617689014, 9.108036739449432]}}, {"type": "Feature", "properties": {"norad_id": 60452, "name": "LEGION 3", "group": "resource", "lat": -30.01944812732978, "lon": 109.32304924629281, "alt_km": 511.8891578945777, "timestamp": "2025-12-23T05:02:11.681508+00:00", "meta": {"OBJECT_NAME": "LEGION 3", "OBJECT_ID": "2024-146A", "EPOCH": "2025-12-22T21:43:15.295296", "MEAN_MOTION": 15.15859061, "ECCENTRICITY": 0.00157176, "INCLINATION": 45.0008, "RA_OF_ASC_NODE": 255.635, "ARG_OF_PERICENTER": 252.9816, "MEAN_ANOMALY": 106.934, "EPHEMERIS_TYPE": 0, "CLASSIFICATION_TYPE": "U", "NORAD_CAT_ID": 60452, "ELEMENT_SET_NO": 999, "REV_AT_EPOCH": 7527, "BSTAR": 0.00026629018, "MEAN_MOTION_DOT": 4.932e-05, "MEAN_MOTION_DDOT": 0}, "tle": {"line1": "1 60452U 24146A   25356.90503814  .00004932  00000+0  26629-3 0  9990", "line2": "2 60452  45.0008 255.6350 0015717 252.9816 106.9340 15.15859061 75271"}}, "geometry": {"type": "Point", "coordinates": [109.32304924629281, -30.01944812732978]}}, {"type": "Feature", "properties": {"norad_id": 60453, "name": "LEGION 4", "group": "resource", "lat": -29.508076388853816, "lon": -159.77662829163702, "alt_km": 525.7860830129994, "timestamp": "2025-12-23T05:02:11.681519+00:00", "meta": {"OBJECT_NAME": "LEGION 4", "OBJECT_ID": "2024-146B", "EPOCH": "2025-12-22T23:18:27.966528", "MEAN_MOTION": 15.15926035, "ECCENTRICITY": 0.00083892, "INCLINATION": 45.0392, "RA_OF_ASC_NODE": 347.0607, "ARG_OF_PERICENTER": 7.3235, "MEAN_ANOMALY": 352.7765, "EPHEMERIS_TYPE": 0, "CLASSIFICATION_TYPE": "U", "NORAD_CAT_ID": 60453, "ELEMENT_SET_NO": 999, "REV_AT_EPOCH": 7413, "BSTAR": 0.00033140871, "MEAN_MOTION_DOT": 6.205e-05, "MEAN_MOTION_DDOT": 0}, "tle": {"line1": "1 60453U 24146B   25356.97115702  .00006205  00000+0  33141-3 0  9995", "line2": "2 60453  45.0392 347.0607 0008389   7.3235 352.7765 15.15926035 74135"}}, "geometry": {"type": "Point", "coordinates": [-159.77662829163702, -29.508076388853816]}}]}